{
  "type": "FeatureCollection",
  "name": "aegean_sea",
  "features": [
    {
      "type": "Feature",
      "properties": {
        "name": "Aegean Sea",
        "name_el": "Αιγαίο Πέλαγος",
        "watch_region": "aegean",
        "bbox": [22.0, 35.0, 28.0, 42.0],
        "note": "Operational bounding box used by the Watch system. Not a legal maritime boundary."
      },
      "geometry": {
        "type": "Polygon",
        "coordinates": [[
          [22.0, 35.0], [28.0, 35.0], [28.0, 42.0], [22.0, 42.0], [22.0, 35.0]
        ]]
      }
    }
  ]
}
